<?xml version="1.0" ?>
<kml xmlns="http://www.opengis.net/kml/2.2">
  <Document>
    <Placemark>
      <Point>
        <coordinates>-41.764842535708695,-3.1232952249006543,0</coordinates>
      </Point>
    </Placemark>
    <Placemark>
      <Point>
        <coordinates>-41.76480654981571,-3.1232952249006543,0</coordinates>
      </Point>
    </Placemark>
    <Placemark>
      <Point>
        <coordinates>-41.76487852160168,-3.1232952249006543,0</coordinates>
      </Point>
    </Placemark>
  </Document>
</kml>
