<?xml version="1.0" ?>
<kml xmlns="http://www.opengis.net/kml/2.2">
  <Document>
    <Placemark>
      <Point>
        <coordinates>-41.76462632693412,-3.1228104571760356,0</coordinates>
      </Point>
    </Placemark>
    <Placemark>
      <Point>
        <coordinates>-41.76463383129457,-3.1228104571760356,0</coordinates>
      </Point>
    </Placemark>
    <Placemark>
      <Point>
        <coordinates>-41.76463383129457,-3.1228464504093076,0</coordinates>
      </Point>
    </Placemark>
  </Document>
</kml>
