<?xml version="1.0" ?>
<kml xmlns="http://www.opengis.net/kml/2.2">
  <Document>
    <Placemark>
      <Point>
        <coordinates>-41.76366287816166,-3.1229474174855105,0</coordinates>
      </Point>
    </Placemark>
    <Placemark>
      <Point>
        <coordinates>-41.7636818818354,-3.1229326458625755,0</coordinates>
      </Point>
    </Placemark>
    <Placemark>
      <Point>
        <coordinates>-41.763635888741916,-3.1229474174855105,0</coordinates>
      </Point>
    </Placemark>
    <Placemark>
      <Point>
        <coordinates>-41.7636818818354,-3.122868114494474,0</coordinates>
      </Point>
    </Placemark>
    <Placemark>
      <Point>
        <coordinates>-41.7636818818354,-3.1229474174855105,0</coordinates>
      </Point>
    </Placemark>
    <Placemark>
      <Point>
        <coordinates>-41.7636818818354,-3.1228786560126673,0</coordinates>
      </Point>
    </Placemark>
    <Placemark>
      <Point>
        <coordinates>-41.7636898675814,-3.122882003383364,0</coordinates>
      </Point>
    </Placemark>
    <Placemark>
      <Point>
        <coordinates>-41.7636898675814,-3.122917996616636,0</coordinates>
      </Point>
    </Placemark>
    <Placemark>
      <Point>
        <coordinates>-41.763716857001135,-3.122917996616636,0</coordinates>
      </Point>
    </Placemark>
  </Document>
</kml>
