<?xml version="1.0" ?>
<kml xmlns="http://www.opengis.net/kml/2.2">
  <Document>
    <Placemark>
      <Point>
        <coordinates>-41.763511168907804,-3.12247665640614,0</coordinates>
      </Point>
    </Placemark>
    <Placemark>
      <Point>
        <coordinates>-41.763511168907804,-3.122450524843314,0</coordinates>
      </Point>
    </Placemark>
    <Placemark>
      <Point>
        <coordinates>-41.76348465448419,-3.122450524843314,0</coordinates>
      </Point>
    </Placemark>
    <Placemark>
      <Point>
        <coordinates>-41.7634486685912,-3.12247665640614,0</coordinates>
      </Point>
    </Placemark>
    <Placemark>
      <Point>
        <coordinates>-41.76348465448419,-3.12247665640614,0</coordinates>
      </Point>
    </Placemark>
    <Placemark>
      <Point>
        <coordinates>-41.76347507177525,-3.12247665640614,0</coordinates>
      </Point>
    </Placemark>
    <Placemark>
      <Point>
        <coordinates>-41.76348465448419,-3.122440663172868,0</coordinates>
      </Point>
    </Placemark>
    <Placemark>
      <Point>
        <coordinates>-41.7634486685912,-3.122440663172868,0</coordinates>
      </Point>
    </Placemark>
  </Document>
</kml>
