<?xml version="1.0" ?>
<kml xmlns="http://www.opengis.net/kml/2.2">
  <Document>
    <Placemark>
      <Point>
        <coordinates>-41.76553744266063,-3.123993664545548,0</coordinates>
      </Point>
    </Placemark>
    <Placemark>
      <Point>
        <coordinates>-41.76553744266063,-3.1239622406407443,0</coordinates>
      </Point>
    </Placemark>
    <Placemark>
      <Point>
        <coordinates>-41.76553744266063,-3.1240206722294674,0</coordinates>
      </Point>
    </Placemark>
  </Document>
</kml>
