<?xml version="1.0" ?>
<kml xmlns="http://www.opengis.net/kml/2.2">
  <Document>
    <Placemark>
      <Point>
        <coordinates>-41.76360132174189,-3.1234493992224457,0</coordinates>
      </Point>
    </Placemark>
    <Placemark>
      <Point>
        <coordinates>-41.76361901534719,-3.1234533508551183,0</coordinates>
      </Point>
    </Placemark>
    <Placemark>
      <Point>
        <coordinates>-41.76361901534719,-3.1234467921824156,0</coordinates>
      </Point>
    </Placemark>
  </Document>
</kml>
