<?xml version="1.0" ?>
<kml xmlns="http://www.opengis.net/kml/2.2">
  <Document>
    <Placemark>
      <Point>
        <coordinates>-41.76356534038681,-3.123796483461107,0</coordinates>
      </Point>
    </Placemark>
    <Placemark>
      <Point>
        <coordinates>-41.76352793106296,-3.123840336716694,0</coordinates>
      </Point>
    </Placemark>
    <Placemark>
      <Point>
        <coordinates>-41.7635402151687,-3.123840336716694,0</coordinates>
      </Point>
    </Placemark>
    <Placemark>
      <Point>
        <coordinates>-41.76350422927571,-3.123840336716694,0</coordinates>
      </Point>
    </Placemark>
    <Placemark>
      <Point>
        <coordinates>-41.76350422927571,-3.123796483461107,0</coordinates>
      </Point>
    </Placemark>
    <Placemark>
      <Point>
        <coordinates>-41.76352793106296,-3.123809663283306,0</coordinates>
      </Point>
    </Placemark>
    <Placemark>
      <Point>
        <coordinates>-41.76350422927571,-3.123773670050034,0</coordinates>
      </Point>
    </Placemark>
    <Placemark>
      <Point>
        <coordinates>-41.7635402151687,-3.123796483461107,0</coordinates>
      </Point>
    </Placemark>
    <Placemark>
      <Point>
        <coordinates>-41.76352793106296,-3.123773670050034,0</coordinates>
      </Point>
    </Placemark>
    <Placemark>
      <Point>
        <coordinates>-41.7635402151687,-3.123809663283306,0</coordinates>
      </Point>
    </Placemark>
    <Placemark>
      <Point>
        <coordinates>-41.76350422927571,-3.123809663283306,0</coordinates>
      </Point>
    </Placemark>
    <Placemark>
      <Point>
        <coordinates>-41.76348743739101,-3.123796483461107,0</coordinates>
      </Point>
    </Placemark>
    <Placemark>
      <Point>
        <coordinates>-41.763473952223485,-3.123773670050034,0</coordinates>
      </Point>
    </Placemark>
    <Placemark>
      <Point>
        <coordinates>-41.763473952223485,-3.123809663283306,0</coordinates>
      </Point>
    </Placemark>
    <Placemark>
      <Point>
        <coordinates>-41.76348743739101,-3.123773670050034,0</coordinates>
      </Point>
    </Placemark>
    <Placemark>
      <Point>
        <coordinates>-41.76348743739101,-3.123809663283306,0</coordinates>
      </Point>
    </Placemark>
    <Placemark>
      <Point>
        <coordinates>-41.76352842219359,-3.123738947827804,0</coordinates>
      </Point>
    </Placemark>
  </Document>
</kml>
