<?xml version="1.0" ?>
<kml xmlns="http://www.opengis.net/kml/2.2">
  <Document>
    <Placemark>
      <Point>
        <coordinates>-41.76541830999646,-3.1238991376518297,0</coordinates>
      </Point>
    </Placemark>
    <Placemark>
      <Point>
        <coordinates>-41.76538232410348,-3.1238991376518297,0</coordinates>
      </Point>
    </Placemark>
    <Placemark>
      <Point>
        <coordinates>-41.76541830999646,-3.123889894381726,0</coordinates>
      </Point>
    </Placemark>
  </Document>
</kml>
