<?xml version="1.0" ?>
<kml xmlns="http://www.opengis.net/kml/2.2">
  <Document>
    <Placemark>
      <Point>
        <coordinates>-41.76446870060217,-3.123571525753156,0</coordinates>
      </Point>
    </Placemark>
    <Placemark>
      <Point>
        <coordinates>-41.76446870060217,-3.1236075189864283,0</coordinates>
      </Point>
    </Placemark>
    <Placemark>
      <Point>
        <coordinates>-41.76446870060217,-3.1236435122197004,0</coordinates>
      </Point>
    </Placemark>
  </Document>
</kml>
