<?xml version="1.0" encoding="UTF-8"?>
<kml xmlns="http://www.opengis.net/kml/2.2">
 <Document>
  <name>QGroundControl Plan KML</name>
  <open>1</open>
  <Style id="BalloonStyle">
   <BalloonStyle>
    <text>$[description]</text>
   </BalloonStyle>
  </Style>
  <Style id="MissionLineStyle">
   <LineStyle>
    <color>ff1c78be</color>
    <width>4</width>
   </LineStyle>
  </Style>
  <Style id="SurveyPolygonStyle">
   <PolyStyle>
    <color>7f008000</color>
   </PolyStyle>
   <LineStyle>
    <color>7f008000</color>
   </LineStyle>
  </Style>
  <Folder>
   <name>Items</name>
   <Placemark>
    <name>0 </name>
    <styleUrl>#BalloonStyle</styleUrl>
    <description><![CDATA[Index: 0
Waypoint
Alt AMSL: 79.00 m
Alt Rel: 0.00 m
Lat: -3.1231500
Lon: -41.7655296
]]></description>
    <Point>
     <altitudeMode>absolute</altitudeMode>
     <coordinates>-41.7655296,-3.1231500,79.00</coordinates>
     <extrude>1</extrude>
    </Point>
   </Placemark>
   <Placemark>
    <name>2 </name>
    <styleUrl>#BalloonStyle</styleUrl>
    <description><![CDATA[Index: 2
Waypoint
Alt AMSL: 79.00 m
Alt Rel: 0.00 m
Lat: -3.1233147
Lon: -41.7655305
]]></description>
    <Point>
     <altitudeMode>absolute</altitudeMode>
     <coordinates>-41.7655305,-3.1233147,79.00</coordinates>
     <extrude>1</extrude>
    </Point>
   </Placemark>
   <Placemark>
    <name>3 </name>
    <styleUrl>#BalloonStyle</styleUrl>
    <description><![CDATA[Index: 3
Waypoint
Alt AMSL: 79.00 m
Alt Rel: 0.00 m
Lat: -3.1233219
Lon: -41.7645251
]]></description>
    <Point>
     <altitudeMode>absolute</altitudeMode>
     <coordinates>-41.7645251,-3.1233219,79.00</coordinates>
     <extrude>1</extrude>
    </Point>
   </Placemark>
   <Placemark>
    <name>4 </name>
    <styleUrl>#BalloonStyle</styleUrl>
    <description><![CDATA[Index: 4
Waypoint
Alt AMSL: 79.00 m
Alt Rel: 0.00 m
Lat: -3.1233179
Lon: -41.7640358
]]></description>
    <Point>
     <altitudeMode>absolute</altitudeMode>
     <coordinates>-41.7640358,-3.1233179,79.00</coordinates>
     <extrude>1</extrude>
    </Point>
   </Placemark>
   <Placemark>
    <name>5 </name>
    <styleUrl>#BalloonStyle</styleUrl>
    <description><![CDATA[Index: 5
Waypoint
Alt AMSL: 79.00 m
Alt Rel: 0.00 m
Lat: -3.1231654
Lon: -41.7640343
]]></description>
    <Point>
     <altitudeMode>absolute</altitudeMode>
     <coordinates>-41.7640343,-3.1231654,79.00</coordinates>
     <extrude>1</extrude>
    </Point>
   </Placemark>
   <Placemark>
    <name>6 </name>
    <styleUrl>#BalloonStyle</styleUrl>
    <description><![CDATA[Index: 6
Waypoint
Alt AMSL: 79.00 m
Alt Rel: 0.00 m
Lat: -3.1230317
Lon: -41.7640315
]]></description>
    <Point>
     <altitudeMode>absolute</altitudeMode>
     <coordinates>-41.7640315,-3.1230317,79.00</coordinates>
     <extrude>1</extrude>
    </Point>
   </Placemark>
   <Placemark>
    <name>7 </name>
    <styleUrl>#BalloonStyle</styleUrl>
    <description><![CDATA[Index: 7
Waypoint
Alt AMSL: 79.00 m
Alt Rel: 0.00 m
Lat: -3.1230254
Lon: -41.7643312
]]></description>
    <Point>
     <altitudeMode>absolute</altitudeMode>
     <coordinates>-41.7643312,-3.1230254,79.00</coordinates>
     <extrude>1</extrude>
    </Point>
   </Placemark>
   <Placemark>
    <name>8 </name>
    <styleUrl>#BalloonStyle</styleUrl>
    <description><![CDATA[Index: 8
Waypoint
Alt AMSL: 79.00 m
Alt Rel: 0.00 m
Lat: -3.1225256
Lon: -41.7643279
]]></description>
    <Point>
     <altitudeMode>absolute</altitudeMode>
     <coordinates>-41.7643279,-3.1225256,79.00</coordinates>
     <extrude>1</extrude>
    </Point>
   </Placemark>
   <Placemark>
    <name>9 </name>
    <styleUrl>#BalloonStyle</styleUrl>
    <description><![CDATA[Index: 9
Waypoint
Alt AMSL: 79.00 m
Alt Rel: 0.00 m
Lat: -3.1225297
Lon: -41.7650169
]]></description>
    <Point>
     <altitudeMode>absolute</altitudeMode>
     <coordinates>-41.7650169,-3.1225297,79.00</coordinates>
     <extrude>1</extrude>
    </Point>
   </Placemark>
   <Placemark>
    <name>10 </name>
    <styleUrl>#BalloonStyle</styleUrl>
    <description><![CDATA[Index: 10
Waypoint
Alt AMSL: 79.00 m
Alt Rel: 0.00 m
Lat: -3.1233560
Lon: -41.7650141
]]></description>
    <Point>
     <altitudeMode>absolute</altitudeMode>
     <coordinates>-41.7650141,-3.1233560,79.00</coordinates>
     <extrude>1</extrude>
    </Point>
   </Placemark>
   <Placemark>
    <name>11 </name>
    <styleUrl>#BalloonStyle</styleUrl>
    <description><![CDATA[Index: 11
Waypoint
Alt AMSL: 79.00 m
Alt Rel: 0.00 m
Lat: -3.1233541
Lon: -41.7655340
]]></description>
    <Point>
     <altitudeMode>absolute</altitudeMode>
     <coordinates>-41.7655340,-3.1233541,79.00</coordinates>
     <extrude>1</extrude>
    </Point>
   </Placemark>
  </Folder>
  <Placemark>
   <styleUrl>#MissionLineStyle</styleUrl>
   <name>Flight Path</name>
   <visibility>1</visibility>
   <LookAt>
    <latitude>-3.1231500</latitude>
    <longitude>-41.7655296</longitude>
    <altitude>-41.77</altitude>
    <heading>-100</heading>
    <tilt>45</tilt>
    <range>2500</range>
   </LookAt>
   <LineString>
    <extruder>1</extruder>
    <tessellate>1</tessellate>
    <altitudeMode>absolute</altitudeMode>
    <coordinates>-41.7655296,-3.1231500,79.00
-41.7655296,-3.1231500,79.00
-41.7655305,-3.1233147,79.00
-41.7645251,-3.1233219,79.00
-41.7640358,-3.1233179,79.00
-41.7640343,-3.1231654,79.00
-41.7640315,-3.1230317,79.00
-41.7643312,-3.1230254,79.00
-41.7643279,-3.1225256,79.00
-41.7650169,-3.1225297,79.00
-41.7650141,-3.1233560,79.00
-41.7655340,-3.1233541,79.00
</coordinates>
   </LineString>
  </Placemark>
 </Document>
</kml>
