<?xml version="1.0" ?>
<kml xmlns="http://www.opengis.net/kml/2.2">
  <Document>
    <Placemark>
      <Point>
        <coordinates>-41.764470527134385,-3.1221768576944537,0</coordinates>
      </Point>
    </Placemark>
    <Placemark>
      <Point>
        <coordinates>-41.76452450597701,-3.1221768576944537,0</coordinates>
      </Point>
    </Placemark>
    <Placemark>
      <Point>
        <coordinates>-41.76449751655569,-3.1221768576944537,0</coordinates>
      </Point>
    </Placemark>
    <Placemark>
      <Point>
        <coordinates>-41.7644484139431,-3.122239328321276,0</coordinates>
      </Point>
    </Placemark>
    <Placemark>
      <Point>
        <coordinates>-41.76452450597701,-3.1221953253491344,0</coordinates>
      </Point>
    </Placemark>
    <Placemark>
      <Point>
        <coordinates>-41.76449751655569,-3.1221953253491344,0</coordinates>
      </Point>
    </Placemark>
    <Placemark>
      <Point>
        <coordinates>-41.764470527134385,-3.1221953253491344,0</coordinates>
      </Point>
    </Placemark>
    <Placemark>
      <Point>
        <coordinates>-41.76449751655569,-3.1222439923631358,0</coordinates>
      </Point>
    </Placemark>
    <Placemark>
      <Point>
        <coordinates>-41.764470527134385,-3.1222439923631358,0</coordinates>
      </Point>
    </Placemark>
    <Placemark>
      <Point>
        <coordinates>-41.7644484139431,-3.1222123333963214,0</coordinates>
      </Point>
    </Placemark>
    <Placemark>
      <Point>
        <coordinates>-41.7644484139431,-3.1222439923631358,0</coordinates>
      </Point>
    </Placemark>
    <Placemark>
      <Point>
        <coordinates>-41.7644484139431,-3.1221953253491344,0</coordinates>
      </Point>
    </Placemark>
    <Placemark>
      <Point>
        <coordinates>-41.76452450597701,-3.1222439923631358,0</coordinates>
      </Point>
    </Placemark>
    <Placemark>
      <Point>
        <coordinates>-41.76449751655569,-3.122262151825757,0</coordinates>
      </Point>
    </Placemark>
    <Placemark>
      <Point>
        <coordinates>-41.764470527134385,-3.122262151825757,0</coordinates>
      </Point>
    </Placemark>
    <Placemark>
      <Point>
        <coordinates>-41.76452450597701,-3.122262151825757,0</coordinates>
      </Point>
    </Placemark>
  </Document>
</kml>
