<?xml version="1.0" ?>
<kml xmlns="http://www.opengis.net/kml/2.2">
  <Document>
    <Placemark>
      <Point>
        <coordinates>-41.76535390193517,-3.122885187302646,0</coordinates>
      </Point>
    </Placemark>
    <Placemark>
      <Point>
        <coordinates>-41.76535390193517,-3.1228581574654513,0</coordinates>
      </Point>
    </Placemark>
    <Placemark>
      <Point>
        <coordinates>-41.76535390193517,-3.1228311276282565,0</coordinates>
      </Point>
    </Placemark>
  </Document>
</kml>
