<?xml version="1.0" ?>
<kml xmlns="http://www.opengis.net/kml/2.2">
  <Document>
    <Placemark>
      <Point>
        <coordinates>-41.76535390193517,-3.1229392469770354,0</coordinates>
      </Point>
    </Placemark>
    <Placemark>
      <Point>
        <coordinates>-41.76535390193517,-3.12296627681423,0</coordinates>
      </Point>
    </Placemark>
    <Placemark>
      <Point>
        <coordinates>-41.76535390193517,-3.1229122171398407,0</coordinates>
      </Point>
    </Placemark>
  </Document>
</kml>
