<?xml version="1.0" ?>
<kml xmlns="http://www.opengis.net/kml/2.2">
  <Document>
    <Placemark>
      <Point>
        <coordinates>-41.764257732859654,-3.122995186236778,0</coordinates>
      </Point>
    </Placemark>
    <Placemark>
      <Point>
        <coordinates>-41.764350539419944,-3.1230231909012782,0</coordinates>
      </Point>
    </Placemark>
    <Placemark>
      <Point>
        <coordinates>-41.764350539419944,-3.1229766283176033,0</coordinates>
      </Point>
    </Placemark>
    <Placemark>
      <Point>
        <coordinates>-41.764350539419944,-3.122995186236778,0</coordinates>
      </Point>
    </Placemark>
    <Placemark>
      <Point>
        <coordinates>-41.764350539419944,-3.123022181161732,0</coordinates>
      </Point>
    </Placemark>
    <Placemark>
      <Point>
        <coordinates>-41.76432272761876,-3.1229577908678268,0</coordinates>
      </Point>
    </Placemark>
    <Placemark>
      <Point>
        <coordinates>-41.76429573819745,-3.1229577908678268,0</coordinates>
      </Point>
    </Placemark>
    <Placemark>
      <Point>
        <coordinates>-41.764349414804705,-3.122976915859642,0</coordinates>
      </Point>
    </Placemark>
    <Placemark>
      <Point>
        <coordinates>-41.76426919009932,-3.122976915859642,0</coordinates>
      </Point>
    </Placemark>
    <Placemark>
      <Point>
        <coordinates>-41.76432272761876,-3.122976915859642,0</coordinates>
      </Point>
    </Placemark>
    <Placemark>
      <Point>
        <coordinates>-41.764349414804705,-3.123022181161732,0</coordinates>
      </Point>
    </Placemark>
    <Placemark>
      <Point>
        <coordinates>-41.76426919009932,-3.123022181161732,0</coordinates>
      </Point>
    </Placemark>
    <Placemark>
      <Point>
        <coordinates>-41.76429573819745,-3.122976915859642,0</coordinates>
      </Point>
    </Placemark>
    <Placemark>
      <Point>
        <coordinates>-41.76426919009932,-3.122995186236778,0</coordinates>
      </Point>
    </Placemark>
    <Placemark>
      <Point>
        <coordinates>-41.76426919009932,-3.1230261957952137,0</coordinates>
      </Point>
    </Placemark>
    <Placemark>
      <Point>
        <coordinates>-41.764349414804705,-3.122995186236778,0</coordinates>
      </Point>
    </Placemark>
    <Placemark>
      <Point>
        <coordinates>-41.764349414804705,-3.1230261957952137,0</coordinates>
      </Point>
    </Placemark>
    <Placemark>
      <Point>
        <coordinates>-41.76429573819745,-3.1230261957952137,0</coordinates>
      </Point>
    </Placemark>
    <Placemark>
      <Point>
        <coordinates>-41.76432272761876,-3.1230261957952137,0</coordinates>
      </Point>
    </Placemark>
    <Placemark>
      <Point>
        <coordinates>-41.76429573819745,-3.1230424967673174,0</coordinates>
      </Point>
    </Placemark>
    <Placemark>
      <Point>
        <coordinates>-41.76432272761876,-3.1230424967673174,0</coordinates>
      </Point>
    </Placemark>
  </Document>
</kml>
